NORAD_CAT_ID,OBJECT_NAME,OBJECT_TYPE,EPOCH,MEAN_MOTION,ECCENTRICITY,INCLINATION,RA_OF_ASC_NODE,ARG_OF_PERICENTER,MEAN_ANOMALY,BSTAR,MEAN_MOTION_DOT,MEAN_MOTION_DDOT,TLE_LINE0,TLE_LINE1,TLE_LINE2,SEMIMAJOR_AXIS,PERIOD,APOGEE,PERIGEE,DECAYED
55273.0,STARLINK-5291,PAYLOAD,2024-07-26 16:35:29,14.98331728,0.000367,69.9974,94.4374,256.4084,103.6666,-0.00012444,-1.578e-05,0.0,0 STARLINK-5291,1 55273U 23010E   24208.69131107 -.00001578  00000-0 -12444-3 0  9993,2 55273  69.9974  94.4374 0003670 256.4084 103.6666 14.98331728 83953,6950.188,96.107,574.603,569.502,0.0
55273.0,STARLINK-5291,PAYLOAD,2024-07-27 10:12:56,14.98344311,0.000232,69.9985,92.5876,273.7331,86.3562,6.1274e-05,6.38e-06,0.0,0 STARLINK-5291,1 55273U 23010E   24209.42565795  .00000638  00000-0  61274-4 0  9999,2 55273  69.9985  92.5876 0002320 273.7331  86.3562 14.98344311 84066,6950.149,96.106,573.626,570.401,0.0
55273.0,STARLINK-5291,PAYLOAD,2024-07-27 21:25:53,14.98326461,0.0002343,69.9999,91.4056,262.6639,97.4254,0.000344,4.013e-05,0.0,0 STARLINK-5291,1 55273U 23010E   24209.89298126  .00004013  00000-0  34400-3 0  9992,2 55273  69.9999  91.4056 0002343 262.6639  97.4254 14.98326461 84441,6950.204,96.107,573.697,570.44,0.0
55273.0,STARLINK-5291,PAYLOAD,2024-07-28 02:14:17,14.98327927,0.0002555,70.0001,90.9003,260.4132,99.6739,0.00030586,3.558e-05,0.0,0 STARLINK-5291,1 55273U 23010E   24210.09326149  .00003558  00000-0  30586-3 0  9997,2 55273  70.0001  90.9003 0002555 260.4132  99.6739 14.98327927 84162,6950.199,96.107,573.84,570.289,0.0
55273.0,STARLINK-5291,PAYLOAD,2024-07-28 23:04:02,14.98339842,0.0002172,70.0005,88.7136,269.0199,91.0711,-7.0754e-05,-9.37e-06,0.0,0 STARLINK-5291,1 55273U 23010E   24210.96114181 -.00000937  00000-0 -70754-4 0  9996,2 55273  70.0005  88.7136 0002172 269.0199  91.0711 14.98339842 84605,6950.162,96.106,573.537,570.518,0.0
55273.0,STARLINK-5291,PAYLOAD,2024-07-29 02:16:18,14.98339642,0.0002295,70.0004,88.3771,270.045,90.0446,-8.0779e-05,-1.057e-05,0.0,0 STARLINK-5291,1 55273U 23010E   24211.09466125 -.00001057  00000-0 -80779-4 0  9991,2 55273  70.0004  88.3771 0002295 270.0450  90.0446 14.98339642 84313,6950.163,96.106,573.623,570.433,0.0
55273.0,STARLINK-5291,PAYLOAD,2024-07-29 08:40:50,14.98337353,0.0002355,70.0002,87.7038,269.5905,90.4985,-8.8249e-06,-1.98e-06,0.0,0 STARLINK-5291,1 55273U 23010E   24211.36169851 -.00000198  00000-0 -88249-5 0  9993,2 55273  70.0002  87.7038 0002355 269.5905  90.4985 14.98337353 84662,6950.17,96.107,573.672,570.398,0.0
55273.0,STARLINK-5291,PAYLOAD,2024-07-29 21:29:54,14.98338927,0.0002405,70.0001,86.3571,269.1308,90.9575,1.062e-05,3.4e-07,0.0,0 STARLINK-5291,1 55273U 23010E   24211.89577403  .00000034  00000-0  10620-4 0  9991,2 55273  70.0001  86.3571 0002405 269.1308  90.9575 14.98338927 84744,6950.165,96.106,573.702,570.359,0.0
55273.0,STARLINK-5291,PAYLOAD,2024-07-30 08:42:51,14.98336493,0.0002377,70.0001,85.1787,271.5355,88.5531,-1.7906e-05,-3.07e-06,0.0,0 STARLINK-5291,1 55273U 23010E   24212.36309404 -.00000307  00000-0 -17906-4 0  9997,2 55273  70.0001  85.1787 0002377 271.5355  88.5531 14.98336493 84502,6950.173,96.107,573.69,570.386,0.0
55273.0,STARLINK-5291,PAYLOAD,2024-07-30 15:07:23,14.98331703,0.0002384,69.9999,84.5054,272.0071,88.0815,2.972e-05,2.62e-06,0.0,0 STARLINK-5291,1 55273U 23010E   24212.63013494  .00000262  00000-0  29720-4 0  9993,2 55273  69.9999  84.5054 0002384 272.0071  88.0815 14.98331703 84851,6950.188,96.107,573.71,570.396,0.0
55273.0,STARLINK-5291,PAYLOAD,2024-07-30 23:08:03,14.98332958,0.0002381,69.9999,83.6639,270.9118,89.1768,4.0583e-05,3.91e-06,0.0,0 STARLINK-5291,1 55273U 23010E   24212.96393321  .00000391  00000-0  40583-4 0  9992,2 55273  69.9999  83.6639 0002381 270.9118  89.1768 14.98332958 84904,6950.184,96.107,573.704,570.394,0.0
55273.0,STARLINK-5291,PAYLOAD,2024-07-31 08:44:52,14.98331778,0.0002359,70.0,82.6539,271.375,88.7139,-6.389e-06,-1.69e-06,0.0,0 STARLINK-5291,1 55273U 23010E   24213.36449442 -.00000169  00000-0 -63890-5 0  9995,2 55273  70.0000  82.6539 0002359 271.3750  88.7139 14.98331778 84658,6950.187,96.107,573.692,570.413,0.0
55273.0,STARLINK-5291,PAYLOAD,2024-07-31 23:10:05,14.98327359,0.0002371,70.0001,81.1378,264.7493,95.3396,-6.3008e-05,-8.45e-06,0.0,0 STARLINK-5291,1 55273U 23010E   24213.96533856 -.00000845  00000-0 -63008-4 0  9995,2 55273  70.0001  81.1378 0002371 264.7493  95.3396 14.98327359 85052,6950.201,96.107,573.714,570.418,0.0
55273.0,STARLINK-5291,PAYLOAD,2024-08-01 08:46:53,14.98331247,0.0002416,70.0001,80.1273,268.6558,91.4324,-4.7534e-05,-6.6e-06,0.0,0 STARLINK-5291,1 55273U 23010E   24214.36589590 -.00000660  00000-0 -47534-4 0  9997,2 55273  70.0001  80.1273 0002416 268.6558  91.4324 14.98331247 84801,6950.189,96.107,573.733,570.375,0.0
55273.0,STARLINK-5291,PAYLOAD,2024-08-01 21:35:57,14.98335241,0.0002567,69.9998,78.7812,267.4658,92.6207,0.00013292,1.494e-05,0.0,0 STARLINK-5291,1 55273U 23010E   24214.89996700  .00001494  00000-0  13292-3 0  9997,2 55273  69.9998  78.7812 0002567 267.4658  92.6207 14.98335241 84889,6950.177,96.107,573.826,570.258,0.0
55273.0,STARLINK-5291,PAYLOAD,2024-08-02 00:48:11,14.98391752,0.0002834,69.9999,78.4444,264.8745,95.209,-0.00083197,-0.00010022,0.0,0 STARLINK-5291,1 55273U 23010E   24215.03347115 -.00010022  00000-0 -83197-3 0  9994,2 55273  69.9999  78.4444 0002834 264.8745  95.2090 14.98391752 84904,6950.002,96.103,573.837,569.897,0.0
55273.0,STARLINK-5291,PAYLOAD,2024-08-02 15:13:26,14.98321989,0.0002587,69.9997,76.9299,268.0395,92.0468,5.9243e-05,6.14e-06,0.0,0 STARLINK-5291,1 55273U 23010E   24215.63433645  .00000614  00000-0  59243-4 0  9994,2 55273  69.9997  76.9299 0002587 268.0395  92.0468 14.98321989 85309,6950.218,96.108,573.881,570.285,0.0
55273.0,STARLINK-5291,PAYLOAD,2024-08-02 21:37:59,14.98320199,0.0002667,69.9996,76.2572,268.4599,91.6255,0.00010202,1.124e-05,0.0,0 STARLINK-5291,1 55273U 23010E   24215.90137755  .00001124  00000-0  10202-3 0  9995,2 55273  69.9996  76.2572 0002667 268.4599  91.6255 14.98320199 85035,6950.223,96.108,573.942,570.235,0.0
55273.0,STARLINK-5291,PAYLOAD,2024-08-03 15:15:28,14.9824095,0.0002682,69.9998,74.4062,258.0266,102.0593,0.0016305,0.00019371,0.0,0 STARLINK-5291,1 55273U 23010E   24216.63574886  .00019371  00000-0  16305-2 0  9998,2 55273  69.9998  74.4062 0002682 258.0266 102.0593 14.98240950 85458,6950.468,96.113,574.197,570.469,0.0
55273.0,STARLINK-5291,PAYLOAD,2024-08-03 21:39:59,14.98338499,0.0002586,70.0,73.7334,267.2264,92.8599,8.1746e-06,5e-08,0.0,0 STARLINK-5291,1 55273U 23010E   24216.90276816  .00000005  00000-0  81746-5 0  9998,2 55273  70.0000  73.7334 0002586 267.2264  92.8599 14.98338499 85180,6950.167,96.106,573.829,570.234,0.0
55273.0,STARLINK-5291,PAYLOAD,2024-08-04 13:41:20,14.98326401,0.0002587,69.9998,72.0489,271.9736,88.1127,7.752e-05,8.32e-06,0.0,0 STARLINK-5291,1 55273U 23010E   24217.57037220  .00000832  00000-0  77520-4 0  9998,2 55273  69.9998  72.0489 0002587 271.9736  88.1127 14.98326401 85289,6950.204,96.107,573.867,570.271,0.0
55273.0,STARLINK-5291,PAYLOAD,2024-08-04 15:17:28,14.98326336,0.0002591,69.9998,71.8806,271.9012,88.185,7.4264e-05,7.93e-06,0.0,0 STARLINK-5291,1 55273U 23010E   24217.63713244  .00000793  00000-0  74264-4 0  9990,2 55273  69.9998  71.8806 0002591 271.9012  88.1850 14.98326336 85607,6950.204,96.107,573.87,570.268,0.0
55273.0,STARLINK-5291,PAYLOAD,2024-08-04 21:42:00,14.98327226,0.0002601,69.9999,71.2073,272.0291,88.057,7.8554e-05,8.44e-06,0.0,0 STARLINK-5291,1 55273U 23010E   24217.90417240  .00000844  00000-0  78554-4 0  9990,2 55273  69.9999  71.2073 0002601 272.0291  88.0570 14.98327226 85642,6950.201,96.107,573.874,570.259,0.0
55273.0,STARLINK-5291,PAYLOAD,2024-08-05 21:44:00,14.9833467,0.0002431,70.0004,68.6825,260.0693,100.0191,5.1833e-05,5.26e-06,0.0,0 STARLINK-5291,1 55273U 23010E   24218.90556682  .00000526  00000-0  51833-4 0  9993,2 55273  70.0004  68.6825 0002431 260.0693 100.0191 14.98334670 85488,6950.178,96.107,573.733,570.354,0.0
55273.0,STARLINK-5291,PAYLOAD,2024-08-06 13:45:21,14.98327936,0.0002497,70.001,67.0002,263.6612,96.4263,2.1914e-05,1.69e-06,0.0,0 STARLINK-5291,1 55273U 23010E   24219.57316984  .00000169  00000-0  21914-4 0  9996,2 55273  70.0010  67.0002 0002497 263.6612  96.4263 14.98327936 85897,6950.199,96.107,573.8,570.329,0.0
55273.0,STARLINK-5291,PAYLOAD,2024-08-06 20:09:54,14.98323859,0.0002487,70.001,66.3272,257.7303,102.3577,-2.1533e-05,-3.5e-06,0.0,0 STARLINK-5291,1 55273U 23010E   24219.84021395 -.00000350  00000-0 -21533-4 0  9996,2 55273  70.0010  66.3272 0002487 257.7303 102.3577 14.98323859 85624,6950.212,96.107,573.805,570.348,0.0
55273.0,STARLINK-5291,PAYLOAD,2024-08-06 21:46:02,14.98321794,0.0002721,70.0008,66.1591,261.6855,98.3995,-1.4012e-05,-2.6e-06,0.0,0 STARLINK-5291,1 55273U 23010E   24219.90697516 -.00000260  00000-0 -14012-4 0  9991,2 55273  70.0008  66.1591 0002721 261.6855  98.3995 14.98321794 85949,6950.218,96.108,573.974,570.192,0.0
55273.0,STARLINK-5291,PAYLOAD,2024-08-06 23:22:10,14.98321211,0.0002466,70.0006,65.989,257.4699,102.6184,-2.565e-05,-3.99e-06,0.0,0 STARLINK-5291,1 55273U 23010E   24219.97373625 -.00000399  00000-0 -25650-4 0  9993,2 55273  70.0006  65.9890 0002466 257.4699 102.6184 14.98321211 85955,6950.22,96.108,573.799,570.371,0.0
55273.0,STARLINK-5291,PAYLOAD,2024-08-07 20:11:54,14.98331834,0.0002767,69.9999,63.801,259.6569,100.4278,3.7325e-05,3.52e-06,0.0,0 STARLINK-5291,1 55273U 23010E   24220.84160818  .00000352  00000-0  37325-4 0  9998,2 55273  69.9999  63.8010 0002767 259.6569 100.4278 14.98331834 85770,6950.187,96.107,573.975,570.129,0.0
55273.0,STARLINK-5291,PAYLOAD,2024-08-08 13:49:23,14.98330876,0.0002983,70.0,61.948,269.8201,90.2616,0.00011023,1.223e-05,0.0,0 STARLINK-5291,1 55273U 23010E   24221.57596647  .00001223  00000-0  11023-3 0  9996,2 55273  70.0000  61.9480 0002983 269.8201  90.2616 14.98330876 86196,6950.19,96.107,574.128,569.982,0.0
